{
    "links": {
        "self": "http://www.neowsapp.com/rest/v1/neo/54076361?api_key=iIulBulltgU6a56xZRHN4H3l9WmuAYTsLGpBGhQ2"
    },
    "id": "54076361",
    "neo_reference_id": "54076361",
    "name": "(2020 UD5)",
    "designation": "2020 UD5",
    "nasa_jpl_url": "http://ssd.jpl.nasa.gov/sbdb.cgi?sstr=54076361",
    "absolute_magnitude_h": 25.714,
    "estimated_diameter": {
        "kilometers": {
            "estimated_diameter_min": 0.0191317623,
            "estimated_diameter_max": 0.0427799211
        },
        "meters": {
            "estimated_diameter_min": 19.1317623091,
            "estimated_diameter_max": 42.7799210525
        },
        "miles": {
            "estimated_diameter_min": 0.0118879223,
            "estimated_diameter_max": 0.0265822023
        },
        "feet": {
            "estimated_diameter_min": 62.7682510542,
            "estimated_diameter_max": 140.3540761859
        }
    },
    "is_potentially_hazardous_asteroid": false,
    "close_approach_data": [
        {
            "close_approach_date": "2020-10-18",
            "close_approach_date_full": "2020-Oct-18 08:30",
            "epoch_date_close_approach": 1603009800000,
            "relative_velocity": {
                "kilometers_per_second": "19.6976373773",
                "kilometers_per_hour": "70911.4945584049",
                "miles_per_hour": "44061.64504936"
            },
            "miss_distance": {
                "astronomical": "0.0402734056",
                "lunar": "15.6663547784",
                "kilometers": "6024815.695406072",
                "miles": "3743646.8779129136"
            },
            "orbiting_body": "Earth"
        }
    ],
    "orbital_data": {
        "orbit_id": "1",
        "orbit_determination_date": "2020-10-24 18:12:23",
        "first_observation_date": "2020-10-21",
        "last_observation_date": "2020-10-24",
        "data_arc_in_days": 3,
        "observations_used": 15,
        "orbit_uncertainty": "8",
        "minimum_orbit_intersection": ".0361193",
        "jupiter_tisserand_invariant": "3.675",
        "epoch_osculation": "2459145.5",
        "eccentricity": ".6085924082971106",
        "semi_major_axis": "1.866689595213147",
        "inclination": "20.95598653217128",
        "ascending_node_longitude": "210.5882234331955",
        "orbital_period": "931.5508940978798",
        "perihelion_distance": ".7306364789192193",
        "perihelion_argument": "100.1400358403395",
        "aphelion_distance": "3.002742711507075",
        "perihelion_time": "2459093.177855494409",
        "mean_anomaly": "20.22001389441383",
        "mean_motion": ".3864523154675585",
        "equinox": "J2000",
        "orbit_class": {
            "orbit_class_type": "APO",
            "orbit_class_description": "Near-Earth asteroid orbits which cross the Earth’s orbit similar to that of 1862 Apollo",
            "orbit_class_range": "a (semi-major axis) > 1.0 AU; q (perihelion) < 1.017 AU"
        }
    },
    "is_sentry_object": false
}